OBJECT_NAME,OBJECT_ID,EPOCH,MEAN_MOTION,ECCENTRICITY,INCLINATION,RA_OF_ASC_NODE,ARG_OF_PERICENTER,MEAN_ANOMALY,EPHEMERIS_TYPE,CLASSIFICATION_TYPE,NORAD_CAT_ID,ELEMENT_SET_NO,REV_AT_EPOCH,BSTAR,MEAN_MOTION_DOT,MEAN_MOTION_DDOT
JUPITER 3 (ECHOSTAR 24),2023-108A,2026-06-26T12:02:24.762336,1.00270057,.0001152,0.0222,15.6133,75.8451,268.5548,0,U,57479,999,1074,0,0,0
GALAXY 37 (G-37),2023-112A,2026-06-27T11:54:10.314144,1.00272082,.0002254,0.0166,56.2332,37.3969,233.5185,0,U,57493,999,1064,0,.6E-6,0
LUDI TANCE-4 01A,2023-120A,2026-06-27T00:57:19.882944,1.00267837,.0001333,15.0930,193.7182,21.6649,163.6860,0,U,57624,999,1064,0,-.153E-5,0
ZHONGXING-6E,2023-172A,2026-06-27T07:55:23.363328,1.00274901,.0002621,0.0346,264.8989,188.6612,56.2280,0,U,58253,999,976,0,-.35E-5,0
YAOGAN-41,2023-197A,2026-06-27T13:05:31.054848,1.00276311,.0014201,3.1097,313.3020,195.3521,86.5333,0,U,58582,999,942,0,-.347E-5,0
OVZON-3,2024-003A,2026-06-27T11:04:45.390144,1.00272169,.0000318,0.0155,38.5640,46.0546,56.8337,0,U,58698,999,755,0,0,0
INSAT-3DS,2024-033A,2026-06-27T11:11:07.279008,1.00270585,.0001483,0.0626,100.1026,347.4778,77.8457,0,U,58990,999,4717,0,-.144E-5,0
MERAH PUTIH 2,2024-035A,2026-06-27T11:32:38.690304,1.00272980,.0001474,0.0148,62.3865,35.5071,103.8129,0,U,58995,999,869,0,-.346E-5,0
TJS-11,2024-037A,2026-06-26T21:38:34.901376,1.00271807,.0003535,4.1863,327.2062,109.8536,275.2694,0,U,59020,999,868,0,-.35E-5,0
HULIANWAN GAOGUI-01 (HG-01),2024-040A,2026-06-27T12:39:59.804064,1.00272854,.0002923,0.0704,330.2380,74.5516,94.4272,0,U,59069,999,743,0,.168E-5,0
EUTELSAT 36D,2024-059A,2026-06-27T12:40:37.243776,1.00269673,.0000403,0.0248,21.0069,85.9042,34.7226,0,U,59346,999,825,0,0,0
PAKSAT-MM1,2024-104A,2026-06-27T12:41:14.685216,1.00272993,.0002791,0.0465,213.3393,219.2955,71.4707,0,U,59915,999,763,0,.165E-5,0
ASTRA 1P (SES-24),2024-115A,2026-06-27T07:27:53.524224,1.00271801,.000027,0.0605,341.1012,149.5183,275.9817,0,U,60086,999,729,0,.132E-5,0
GOES 19,2024-119A,2026-06-27T12:08:53.901888,1.00271109,.000058,0.0118,110.9220,30.5343,241.1883,0,U,60133,999,706,0,-.237E-5,0
ZHONGXING-3A,2024-122A,2026-06-26T07:54:12.065184,1.00272295,.0001532,0.0422,126.7500,356.6470,11.1904,0,U,60179,999,740,0,-.302E-5,0
TURKSAT 6A,2024-127A,2026-06-27T02:26:26.071296,1.00273646,.00027361,0.0588,212.2486,288.0405,213.5719,0,U,60233,999,711,0,.158E-5,0
HULIANWAN GAOGUI-02 (HG-02),2024-135A,2026-06-26T23:32:51.493920,1.00269273,.00074876,0.0436,354.3395,16.2160,50.8501,0,U,60327,999,759,0,-.162E-5,0
ZHONGXING-4A,2024-151A,2026-06-27T13:32:28.831776,1.00268949,.0000589,1.2881,270.6908,213.5348,112.7694,0,U,60606,999,685,0,-.349E-5,0
HULIANWAN GAOGUI-03 (HG-03),2024-181A,2026-06-27T05:17:46.543776,1.00274533,.0001514,0.0467,357.7458,90.0159,189.8965,0,U,61503,999,692,0,-.23E-5,0
DSN-3 (KIRAMEKI-3),2024-198A,2026-06-27T12:00:38.632032,1.00273702,.000099,0.0187,342.2903,119.9962,137.5313,0,U,61733,999,602,0,-.238E-5,0
KOREASAT 6A,2024-206A,2026-06-27T10:08:38.693184,1.00269665,.0000893,0.0181,30.4873,61.4357,91.7997,0,U,61910,999,594,0,0,0
OPTUS-X (ADS-01),2024-212A,2026-06-27T11:49:38.537760,1.00271953,.0002289,0.0189,12.2977,117.2841,119.8140,0,U,62006,999,586,0,-.132E-5,0
GSAT-N2 (GSAT-20),2024-214A,2026-06-27T11:07:07.660704,1.00272367,.0002241,0.0605,101.6264,345.7344,62.9301,0,U,62028,999,600,0,-.8E-7,0
SXM-9,2024-234A,2026-06-27T01:50:05.437248,1.00276794,.00049989,0.0142,341.9377,339.7234,255.8969,0,U,62259,999,567,0,-.194E-5,0
TJS-12,2024-246A,2026-06-27T13:05:38.563008,1.00274889,.0002379,0.6481,300.1628,104.1302,214.2809,0,U,62374,999,566,0,-.218E-5,0
NUVIEW ALPHA,2024-252B,2026-06-27T12:06:39.117024,1.00269929,.000119,0.0509,31.4098,30.0506,312.7294,0,U,62455,999,392,0,-.204E-5,0
AGILA,2024-252C,2026-06-27T11:31:03.822240,1.00271555,.0001676,0.0654,123.2952,352.0592,125.1508,0,U,62456,999,526,0,-.17E-5,0
NUVIEW BRAVO,2024-252D,2026-06-27T08:41:22.936992,1.00272166,.000221,0.0739,150.8118,332.5202,199.3911,0,U,62457,999,389,0,-.203E-5,0
THURAYA-4,2025-001A,2026-06-27T07:35:38.749344,1.00266838,.0000097,0.0227,65.6596,197.9169,170.0648,0,U,62483,999,427,0,.151E-5,0
TJS-14,2025-017A,2026-06-27T07:51:38.611872,1.00269483,.0001129,0.7597,296.3204,292.7277,182.6996,0,U,62804,999,537,0,.128E-5,0
