JUPITER 3 (ECHOSTAR 24) 
1 57479U 23108A   26177.50167549  .00000000  00000+0  00000+0 0  9994
2 57479   0.0222  15.6133 0001152  75.8451 268.5548  1.00270057 10740
GALAXY 37 (G-37)        
1 57493U 23112A   26178.49595271  .00000060  00000+0  00000+0 0  9997
2 57493   0.0166  56.2332 0002254  37.3969 233.5185  1.00272082 10644
LUDI TANCE-4 01A        
1 57624U 23120A   26178.03981346 -.00000153  00000+0  00000+0 0  9998
2 57624  15.0930 193.7182 0001333  21.6649 163.6860  1.00267837 10648
ZHONGXING-6E            
1 58253U 23172A   26178.33013152 -.00000350  00000+0  00000+0 0  9997
2 58253   0.0346 264.8989 0002621 188.6612  56.2280  1.00274901  9766
YAOGAN-41               
1 58582U 23197A   26178.54549832 -.00000347  00000+0  00000+0 0  9997
2 58582   3.1097 313.3020 0014201 195.3521  86.5333  1.00276311  9420
OVZON-3                 
1 58698U 24003A   26178.46163646  .00000000  00000+0  00000+0 0  9993
2 58698   0.0155  38.5640 0000318  46.0546  56.8337  1.00272169  7559
INSAT-3DS               
1 58990U 24033A   26178.46605647 -.00000144  00000+0  00000+0 0  9993
2 58990   0.0626 100.1026 0001483 347.4778  77.8457  1.00270585 47178
MERAH PUTIH 2           
1 58995U 24035A   26178.48100336 -.00000346  00000+0  00000+0 0  9991
2 58995   0.0148  62.3865 0001474  35.5071 103.8129  1.00272980  8694
TJS-11                  
1 59020U 24037A   26177.90179284 -.00000350  00000+0  00000+0 0  9992
2 59020   4.1863 327.2062 0003535 109.8536 275.2694  1.00271807  8683
HULIANWAN GAOGUI-01 (H*)
1 59069U 24040A   26178.52777551  .00000168  00000+0  00000+0 0  9995
2 59069   0.0704 330.2380 0002923  74.5516  94.4272  1.00272854  7436
EUTELSAT 36D            
1 59346U 24059A   26178.52820884  .00000000  00000+0  00000+0 0  9996
2 59346   0.0248  21.0069 0000403  85.9042  34.7226  1.00269673  8259
PAKSAT-MM1              
1 59915U 24104A   26178.52864219  .00000165  00000+0  00000+0 0  9991
2 59915   0.0465 213.3393 0002791 219.2955  71.4707  1.00272993  7637
ASTRA 1P (SES-24)       
1 60086U 24115A   26178.31103616  .00000132  00000+0  00000+0 0  9992
2 60086   0.0605 341.1012 0000270 149.5183 275.9817  1.00271801  7292
GOES 19                 
1 60133U 24119A   26178.50617942 -.00000237  00000+0  00000+0 0  9999
2 60133   0.0118 110.9220 0000580  30.5343 241.1883  1.00271109  7062
ZHONGXING-3A            
1 60179U 24122A   26177.32930631 -.00000302  00000+0  00000+0 0  9998
2 60179   0.0422 126.7500 0001532 356.6470  11.1904  1.00272295  7401
TURKSAT 6A              
1 60233U 24127A   26178.10169064  .00000158  00000+0  00000+0 0  9993
2 60233   0.0588 212.2486 0002736 288.0405 213.5719  1.00273646  7113
HULIANWAN GAOGUI-02 (H*)
1 60327U 24135A   26177.98115155 -.00000162  00000+0  00000+0 0  9999
2 60327   0.0436 354.3395 0007487  16.2160  50.8501  1.00269273  7597
ZHONGXING-4A            
1 60606U 24151A   26178.56422259 -.00000349  00000+0  00000+0 0  9995
2 60606   1.2881 270.6908 0000589 213.5348 112.7694  1.00268949  6858
HULIANWAN GAOGUI-03 (H*)
1 61503U 24181A   26178.22067759 -.00000230  00000+0  00000+0 0  9997
2 61503   0.0467 357.7458 0001514  90.0159 189.8965  1.00274533  6926
DSN-3 (KIRAMEKI-3)      
1 61733U 24198A   26178.50044713 -.00000238  00000+0  00000+0 0  9994
2 61733   0.0187 342.2903 0000990 119.9962 137.5313  1.00273702  6029
KOREASAT 6A             
1 61910U 24206A   26178.42267006  .00000000  00000+0  00000+0 0  9990
2 61910   0.0181  30.4873 0000893  61.4357  91.7997  1.00269665  5945
OPTUS-X (ADS-01)        
1 62006U 24212A   26178.49280715 -.00000132  00000+0  00000+0 0  9990
2 62006   0.0189  12.2977 0002289 117.2841 119.8140  1.00271953  5868
GSAT-N2 (GSAT-20)       
1 62028U 24214A   26178.46328311 -.00000008  00000+0  00000+0 0  9990
2 62028   0.0605 101.6264 0002241 345.7344  62.9301  1.00272367  6005
SXM-9                   
1 62259U 24234A   26178.07645182 -.00000194  00000+0  00000+0 0  9999
2 62259   0.0142 341.9377 0004998 339.7234 255.8969  1.00276794  5676
TJS-12                  
1 62374U 24246A   26178.54558522 -.00000218  00000+0  00000+0 0  9990
2 62374   0.6481 300.1628 0002379 104.1302 214.2809  1.00274889  5667
NUVIEW ALPHA            
1 62455U 24252B   26178.50461941 -.00000204  00000+0  00000+0 0  9996
2 62455   0.0509  31.4098 0001190  30.0506 312.7294  1.00269929  3928
AGILA                   
1 62456U 24252C   26178.47990535 -.00000170  00000+0  00000+0 0  9991
2 62456   0.0654 123.2952 0001676 352.0592 125.1508  1.00271555  5261
NUVIEW BRAVO            
1 62457U 24252D   26178.36207103 -.00000203  00000+0  00000+0 0  9999
2 62457   0.0739 150.8118 0002210 332.5202 199.3911  1.00272166  3899
THURAYA-4               
1 62483U 25001A   26178.31642071  .00000151  00000+0  00000+0 0  9994
2 62483   0.0227  65.6596 0000097 197.9169 170.0648  1.00266838  4274
TJS-14                  
1 62804U 25017A   26178.32753023  .00000128  00000+0  00000+0 0  9993
2 62804   0.7597 296.3204 0001129 292.7277 182.6996  1.00269483  5374
